{
    "links": {
        "self": "http://www.neowsapp.com/rest/v1/neo/3600602?api_key=iIulBulltgU6a56xZRHN4H3l9WmuAYTsLGpBGhQ2"
    },
    "id": "3600602",
    "neo_reference_id": "3600602",
    "name": "(2012 ES3)",
    "designation": "2012 ES3",
    "nasa_jpl_url": "http://ssd.jpl.nasa.gov/sbdb.cgi?sstr=3600602",
    "absolute_magnitude_h": 25.2,
    "estimated_diameter": {
        "kilometers": {
            "estimated_diameter_min": 0.0242412481,
            "estimated_diameter_max": 0.0542050786
        },
        "meters": {
            "estimated_diameter_min": 24.2412481101,
            "estimated_diameter_max": 54.2050786336
        },
        "miles": {
            "estimated_diameter_min": 0.0150628086,
            "estimated_diameter_max": 0.0336814639
        },
        "feet": {
            "estimated_diameter_min": 79.5316564495,
            "estimated_diameter_max": 177.8381901842
        }
    },
    "is_potentially_hazardous_asteroid": false,
    "close_approach_data": [
        {
            "close_approach_date": "2012-02-25",
            "close_approach_date_full": "2012-Feb-25 18:36",
            "epoch_date_close_approach": 1330194960000,
            "relative_velocity": {
                "kilometers_per_second": "7.7982727561",
                "kilometers_per_hour": "28073.7819219644",
                "miles_per_hour": "17443.9563281228"
            },
            "miss_distance": {
                "astronomical": "0.0538747163",
                "lunar": "20.9572646407",
                "kilometers": "8059542.805334281",
                "miles": "5007967.6766878378"
            },
            "orbiting_body": "Earth"
        }
    ],
    "orbital_data": {
        "orbit_id": "7",
        "orbit_determination_date": "2017-04-06 08:50:36",
        "first_observation_date": "2012-03-04",
        "last_observation_date": "2012-03-26",
        "data_arc_in_days": 22,
        "observations_used": 22,
        "orbit_uncertainty": "7",
        "minimum_orbit_intersection": ".0496731",
        "jupiter_tisserand_invariant": "4.019",
        "epoch_osculation": "2459000.5",
        "eccentricity": ".4262559205881897",
        "semi_major_axis": "1.742166159049263",
        "inclination": "9.693342770628233",
        "ascending_node_longitude": "169.0259876563083",
        "orbital_period": "839.9100678037058",
        "perihelion_distance": ".9995575191061289",
        "perihelion_argument": "324.0418237450486",
        "aphelion_distance": "2.484774798992397",
        "perihelion_time": "2459323.028939438020",
        "mean_anomaly": "221.7585112400117",
        "mean_motion": ".428617317257989",
        "equinox": "J2000",
        "orbit_class": {
            "orbit_class_type": "APO",
            "orbit_class_description": "Near-Earth asteroid orbits which cross the Earth’s orbit similar to that of 1862 Apollo",
            "orbit_class_range": "a (semi-major axis) > 1.0 AU; q (perihelion) < 1.017 AU"
        }
    },
    "is_sentry_object": false
}